{
    "CCSDS_OMM_VERS": "3.0",
    "COMMENT": "GENERATED VIA SPACE-TRACK.ORG API",
    "CREATION_DATE": "2025-05-23T14:56:28",
    "ORIGINATOR": "18 SPCS",
    "OBJECT_NAME": "BEIDOU 8",
    "OBJECT_ID": "2011-013A",
    "CENTER_NAME": "EARTH",
    "REF_FRAME": "TEME",
    "TIME_SYSTEM": "UTC",
    "MEAN_ELEMENT_THEORY": "SGP4",
    "EPOCH": "2025-05-23T12:14:43.534176",
    "MEAN_MOTION": "1.00272047",
    "ECCENTRICITY": "0.00299940",
    "INCLINATION": "61.8514",
    "RA_OF_ASC_NODE": "43.8444",
    "ARG_OF_PERICENTER": "178.1277",
    "MEAN_ANOMALY": "311.5644",
    "EPHEMERIS_TYPE": "0",
    "CLASSIFICATION_TYPE": "U",
    "NORAD_CAT_ID": "37384",
    "ELEMENT_SET_NO": "999",
    "REV_AT_EPOCH": "5174",
    "BSTAR": "0.00000000000000",
    "MEAN_MOTION_DOT": "-0.00000212",
    "MEAN_MOTION_DDOT": "0.0000000000000",
    "SEMIMAJOR_AXIS": "42164.659",
    "PERIOD": "1436.093",
    "APOAPSIS": "35912.992",
    "PERIAPSIS": "35660.055",
    "OBJECT_TYPE": "PAYLOAD",
    "RCS_SIZE": "LARGE",
    "COUNTRY_CODE": "PRC",
    "LAUNCH_DATE": "2011-04-09",
    "SITE": "XSC",
    "DECAY_DATE": null,
    "FILE": "4737082",
    "GP_ID": "288177052",
    "TLE_LINE0": "0 BEIDOU 8",
    "TLE_LINE1": "1 37384U 11013A   25143.51022609 -.00000212  00000-0  00000+0 0  9996",
    "TLE_LINE2": "2 37384  61.8514  43.8444 0029994 178.1277 311.5644  1.00272047 51749"
}